[{"OBJECT_NAME":"GLOBAL-2","OBJECT_ID":"2018-099BG","EPOCH":"2026-03-09T16:47:21.463008","MEAN_MOTION":15.08046936,"ECCENTRICITY":0.00074537,"INCLINATION":97.3697,"RA_OF_ASC_NODE":109.328,"ARG_OF_PERICENTER":127.1924,"MEAN_ANOMALY":232.9986,"EPHEMERIS_TYPE":0,"CLASSIFICATION_TYPE":"U","NORAD_CAT_ID":43812,"ELEMENT_SET_NO":999,"REV_AT_EPOCH":39691,"BSTAR":0.0002614533,"MEAN_MOTION_DOT":3.97e-5,"MEAN_MOTION_DDOT":0},{"OBJECT_NAME":"STARLINK-4492","OBJECT_ID":"2022-097Y","EPOCH":"2026-03-09T12:15:42.662016","MEAN_MOTION":15.08834705,"ECCENTRICITY":0.00013159,"INCLINATION":53.2173,"RA_OF_ASC_NODE":114.924,"ARG_OF_PERICENTER":91.8187,"MEAN_ANOMALY":268.2956,"EPHEMERIS_TYPE":0,"CLASSIFICATION_TYPE":"U","NORAD_CAT_ID":53410,"ELEMENT_SET_NO":999,"REV_AT_EPOCH":19862,"BSTAR":-3.7538876e-5,"MEAN_MOTION_DOT":-8.85e-6,"MEAN_MOTION_DDOT":0}]
