GLOBAL-2                
1 43812U 18099BG  26068.69955396  .00003970  00000+0  26145-3 0  9998
2 43812  97.3697 109.3280 0007454 127.1924 232.9986 15.08046936396919
STARLINK-4492           
1 53410U 22097Y   26068.51091044 -.00000885  00000+0 -37539-4 0  9992
2 53410  53.2173 114.9240 0001315  91.8187 268.2956 15.08834705198626
